KUIPER-00089            
1 64834U 25151U   25343.25236557  .00008149  00000+0  10960-2 0  9990
2 64834  51.9011 325.4993 0001816  44.0821 316.0286 14.79961287 22121
KUIPER-00090            
1 64835U 25151V   25343.24301078  .00006756  00000+0  94666-3 0  9999
2 64835  51.8996 317.2155 0004358  57.9243 302.2141 14.78449707 22233
KUIPER-00091            
1 64836U 25151W   25343.25508117  .00008607  00000+0  11555-2 0  9996
2 64836  51.9016 322.9940 0008569 355.2438   4.8441 14.79956364 22153
KUIPER-00092            
1 64837U 25151X   25343.17837917  .00005568  00000+0  75509-3 0  9994
2 64837  51.9011 330.8187 0006500 305.1124  54.9229 14.80134862 23254
KUIPER-00093            
1 64838U 25151Y   25343.17669917  .00002067  00000+0  29993-3 0  9995
2 64838  51.9016 333.3241 0013920 311.3518  48.6246 14.79945468 22000
KUIPER-00094            
1 64839U 25151Z   25343.13682999  .00012855  00000+0  92314-3 0  9990
2 64839  51.8904 318.8825 0004603 344.2912  15.7918 15.04594316 22207
KUIPER-00081            
1 65132U 25171A   25343.50002315  .00032655  00000+0  24157-2 0  9997
2 65132  51.8886 188.9699 0003294 205.4281 114.1342 15.02885245  4825
KUIPER-00088            
1 65133U 25171B   25343.35418669  .00003557  00000+0  53358-3 0  9999
2 65133  51.8984 205.1080 0008166 177.4887 182.6116 14.76713485 19410
